1 30783U 99057NS  18205.61760653 +.00000236 +00000-0 +98642-4 0  9995
2 30783 098.1911 073.4195 0048654 253.7838 132.4228 14.33572587596180
1 30789U 99057NY  18204.79957966 +.00000340 +00000-0 +11524-3 0  9993
2 30789 098.4925 155.4214 0007614 141.3801 248.3827 14.42791595598883
1 30791U 99057PA  18205.35006236 +.00000414 +00000-0 +12841-3 0  9999
2 30791 098.4834 165.6506 0006191 116.2438 043.4054 14.46124246599893
1 30792U 99057PB  18205.30659248 +.00000004 +00000-0 +16744-4 0  9994
2 30792 098.5300 144.6706 0005870 232.5123 280.9536 14.35499438597468
1 30800U 99025AUJ 18205.28468580 +.00002173 +00000-0 +42597-3 0  9996
2 30800 099.0093 125.0240 0045094 190.9732 327.3720 14.63316226598606
1 30802U 99025AUL 18205.56658597 +.00000588 +00000-0 +32087-3 0  9999
2 30802 099.0108 233.9206 0023722 204.4461 307.4088 14.15959844589657
1 30803U 99025AUM 18203.88418008 +.00000622 +00000-0 +42732-3 0  9991
2 30803 099.1528 159.7891 0117230 090.3069 334.0109 13.99917871581347
1 30804U 99025AUN 18204.63889698 +.00000138 +00000-0 +42893-4 0  9994
2 30804 098.8973 085.9894 0209539 007.7102 020.5092 14.45627501604169
1 30805U 99025AUP 18204.99215660 +.00000538 +00000-0 +39648-3 0  9993
2 30805 099.0604 271.7029 0069784 185.7898 299.4380 13.98767396581989
1 30806U 99025AUQ 18204.32709786 +.00000190 +00000-0 +21661-3 0  9998
2 30806 099.0963 342.7010 0274298 337.0930 051.5933 13.66354766567965
1 30809U 99025AUT 18204.63672391 +.00000512 +00000-0 +29233-3 0  9997
2 30809 098.9348 266.5902 0060255 320.1146 039.5606 14.13295010588969
1 30810U 99025AUU 18205.37419011 +.00002239 +00000-0 +18614-2 0  9997
2 30810 098.7080 181.3392 0230674 209.5502 149.2449 13.78056076570196
1 30811U 99025AUV 18205.24495645 +.00000349 +00000-0 +43342-3 0  9998
2 30811 098.8201 131.2476 0295094 183.2088 176.7165 13.53787618563697
1 30813U 99025AUX 18205.48328798 +.00002427 +00000-0 +36849-3 0  9993
2 30813 098.9044 135.1182 0057787 332.8260 026.9924 14.74060727603144
1 30814U 99025AUY 18205.43608229 +.00000739 +00000-0 +32219-3 0  9990
2 30814 099.1199 007.5918 0052142 167.4010 219.1738 14.26415358590766
1 30815U 99025AUZ 18205.23026854 +.00000898 +00000-0 +38919-3 0  9996
2 30815 099.3106 105.2015 0003656 016.7757 135.8803 14.27054365590429
1 30816U 99025AVA 18204.93355590 +.00000215 +00000-0 +15796-3 0  9996
2 30816 099.1040 240.2212 0063731 059.9771 061.9479 14.05162830583950
1 30817U 99025AVB 18204.59593384 -.00000221 +00000-0 -12225-3 0  9997
2 30817 098.9660 255.7276 0066958 165.7986 194.5080 13.98245834582345
1 30820U 99025AVE 18204.92134154 +.00000857 +00000-0 +54772-3 0  9990
2 30820 098.5813 011.0890 0060590 281.0161 237.6667 14.05136650584046
1 30821U 99025AVF 18205.28127102 +.00000163 +00000-0 +65169-4 0  9999
2 30821 099.0622 131.7484 0098731 250.3279 262.5700 14.39593317599165
1 30822U 99025AVG 18205.56516927 -.00000073 +00000-0 -15734-4 0  9993
2 30822 099.0367 232.2724 0075691 324.0049 188.0657 14.08474514586960
1 30823U 99025AVH 18205.16907111 -.00000177 +00000-0 -85816-4 0  9992
2 30823 098.7574 086.3147 0141214 057.8236 092.4448 13.99505070582938
1 30826U 99025AVL 18205.34302618 +.00000354 +00000-0 +63234-4 0  9991
2 30826 098.8205 149.2119 0197567 073.9062 080.9954 14.62144503607303
1 30827U 99025AVM 18205.23526446 +.00000904 +00000-0 +53317-3 0  9998
2 30827 098.9208 135.4995 0065953 291.2448 068.1686 14.09375203583489
1 30828U 99025AVN 18205.39312706 +.00000694 +00000-0 +12432-3 0  9997
2 30828 098.5904 265.4136 0330218 122.8532 299.4439 14.40291870595808
1 30829U 99025AVP 18205.54427562 -.00000013 +00000-0 +18770-4 0  9990
2 30829 098.8893 239.0299 0037031 356.4251 003.6647 14.05353324585096
1 30830U 99025AVQ 18204.90879809 +.00000153 +00000-0 +11132-3 0  9994
2 30830 098.8018 237.5743 0030817 283.6369 198.9851 14.09816836585530
1 30831U 99025AVR 18203.99934192 +.00000075 +00000-0 +50531-4 0  9990
2 30831 099.2766 143.9266 0057380 205.9146 153.9156 14.26582562267261
1 30832U 99025AVS 18200.88244577  .00000413  00000-0  39424-3 0  9990
2 30832 100.3566 239.4249 0178778 303.0364  55.3721 13.80668972572118
1 30833U 99025AVT 18204.25158786 +.00000207 +00000-0 +11809-3 0  9990
2 30833 099.8581 357.8426 0035794 158.8416 201.4247 14.21595310591663
1 30835U 99025AVV 18205.38418487 +.00001518 +00000-0 +90682-4 0  9997
2 30835 098.7487 262.4800 0131666 307.6744 051.2596 15.06188753615914
1 30836U 99025AVW 18204.52956101 +.00000028 +00000-0 +42426-4 0  9991
2 30836 099.0485 229.8289 0026063 290.3554 069.4816 14.08991579239698
1 30837U 99025AVX 18205.34148414 +.00000117 +00000-0 +87926-4 0  9996
2 30837 098.7620 242.6179 0032850 260.7045 161.6658 14.11527783587426
1 30838U 99025AVY 18205.06108828 +.00000373 +00000-0 +18500-3 0  9996
2 30838 099.0516 331.5889 0056971 046.9440 313.6487 14.22555410589379
1 30840U 99025AWA 18205.11718307 +.00000132 +00000-0 +34894-4 0  9992
2 30840 098.3278 265.1682 0266030 024.0739 337.2625 14.45448558340425
1 30841U 99025AWB 18205.46584536 +.00000263 +00000-0 +37415-3 0  9992
2 30841 098.7340 030.3252 0360149 050.0132 313.2040 13.39935905556543
1 30843U 99025AWD 18205.48057754 +.00000007 +00000-0 +15273-4 0  9998
2 30843 098.8370 098.6328 0156909 318.1510 040.7771 14.48269969602383
1 30844U 99025AWE 18204.88371817 +.00002201 +00000-0 +47251-3 0  9999
2 30844 098.7726 353.0576 0045863 127.1349 025.4969 14.59071150597944
1 30845U 99025AWF 18205.59615834 +.00000021 +00000-0 +53306-4 0  9996
2 30845 098.4603 120.3438 0196395 354.3452 127.0465 13.75092973571466
1 30846U 99025AWG 18205.29514691 +.00000225 +00000-0 +10543-3 0  9994
2 30846 099.2703 146.1207 0063095 210.0031 306.3255 14.29496757592941
1 30847U 99025AWH 18205.10896281 +.00000343 +00000-0 +24291-3 0  9999
2 30847 098.7431 072.5578 0080512 018.3757 132.8866 14.02627596581434
1 30848U 99025AWJ 18205.22466476 +.00000457 +00000-0 +23122-3 0  9990
2 30848 098.9009 304.6897 0053720 181.1850 178.9207 14.20322687588985
1 30849U 99025AWK 18205.45191111 +.00000306 +00000-0 +20572-3 0  9996
2 30849 099.1102 187.5348 0057196 009.2800 142.4394 14.07479718583259
1 30850U 99025AWL 18205.55900375 +.00000521 +00000-0 +35479-3 0  9990
2 30850 098.3879 231.9806 0140821 277.2217 238.3094 13.99288137579455
1 30851U 99025AWM 18205.22238668 +.00001166 +00000-0 +40272-3 0  9997
2 30851 098.5235 120.8416 0065312 202.7902 157.0382 14.36444671592688
1 30852U 99025AWN 18205.51105630 +.00000277 +00000-0 +19189-3 0  9997
2 30852 099.0105 236.2875 0057900 255.4704 104.0036 14.06526596584369
1 30856U 99025AWS 18205.41203038 +.00001450 +00000-0 +80599-3 0  9998
2 30856 098.2418 189.3903 0144409 149.8999 012.5991 14.07284479584493
1 30857U 99025AWT 18205.46368008 +.00001028 +00000-0 +61548-3 0  9997
2 30857 098.9234 140.3736 0083359 047.9659 312.8566 14.07535680585202
1 30858U 99025AWU 18205.49539257 +.00000137 +00000-0 +95519-4 0  9993
2 30858 099.0758 215.6641 0030641 203.5612 319.6782 14.14193100588148
1 30859U 99025AWV 18205.39368695 +.00000837 +00000-0 +43598-3 0  9995
2 30859 098.8976 171.7158 0052092 256.3697 103.1673 14.16646621586535
1 30860U 99025AWW 18205.49373495 +.00000534 +00000-0 +31127-3 0  9991
2 30860 099.0823 214.3653 0045254 286.9094 072.7119 14.12496899583277
1 30862U 99025AWY 18203.94882772 +.00000801 +00000-0 +43088-3 0  9990
2 30862 099.0410 205.1119 0077031 332.5971 057.3215 14.14353761583870
1 30863U 99025AWZ 18205.19387094 +.00000041 +00000-0 +13706-3 0  9997
2 30863 099.1874 288.6925 0886387 114.3632 285.4869 12.32744323264274
1 30867U 99025AXD 18205.00161854 +.00000849 +00000-0 +50983-3 0  9999
2 30867 097.8496 039.0503 0060461 311.1521 203.6309 14.08233934584175
1 30868U 99025AXE 18205.14494715 -.00000091 +00000-0 -27299-4 0  9996
2 30868 098.2707 266.6273 0139305 043.7838 345.2157 14.09643899586803
1 30870U 99025AXG 18205.53017934 +.00009697 +00000-0 +56418-3 0  9999
2 30870 098.9609 234.9330 0025811 120.0675 240.3116 15.12046256608411
1 30871U 99025AXH 18205.41247225 +.00007174 +00000-0 +71538-3 0  9993
2 30871 099.1777 256.6028 0064492 143.3438 217.2214 14.90389508602432
1 30872U 99025AXJ 18205.08924986 +.00000328 +00000-0 +15388-3 0  9998
2 30872 099.1990 072.5390 0048392 257.7356 259.6185 14.26675359591623
1 30873U 99025AXK 18205.51579349 +.00000015 +00000-0 +27040-4 0  9998
2 30873 098.7760 234.6751 0112443 123.8886 237.3045 14.17067815589623
1 30874U 99025AXL 18205.00232962 +.00000157 +00000-0 +10213-3 0  9990
2 30874 098.7864 276.1144 0043656 224.9344 263.0074 14.15380145588110
1 30875U 99025AXM 18205.46579047 +.00005173 +00000-0 +10550-2 0  9995
2 30875 099.0753 035.7172 0045348 033.9350 326.4734 14.60807618594963
1 30876U 99025AXN 18205.60781071 +.00000295 +00000-0 +23690-3 0  9994
2 30876 098.9636 256.1515 0069483 181.9109 332.4210 13.97232333580162
1 30877U 99025AXP 18204.34572309 +.00002109 +00000-0 +91799-3 0  9998
2 30877 098.7705 138.5976 0064121 252.1948 233.7344 14.24019183586173
1 30878U 99025AXQ 18205.04294932 +.00000200 +00000-0 +14424-3 0  9990
2 30878 098.9008 239.6879 0042451 348.7797 041.9241 14.07269185583939
1 30879U 99025AXR 18205.32413544 +.00000936 +00000-0 +31721-3 0  9999
2 30879 099.3867 243.8502 0414242 308.7602 047.7220 14.00522093577982
1 30880U 99025AXS 18205.61384247 +.00000471 +00000-0 +27393-3 0  9994
2 30880 099.0126 238.8962 0025140 230.3567 288.0288 14.13404078585088
1 30882U 99025AXU 18204.97494472 +.00000559 +00000-0 +97773-4 0  9993
2 30882 098.2901 267.1933 0242438 231.3399 126.5883 14.54833681602987
1 30883U 99025AXV 18205.21016382 +.00000033 +00000-0 +36562-4 0  9998
2 30883 098.3849 353.3502 0115618 041.6560 082.5026 14.12709279588017
1 30884U 99025AXW 18204.92954945 +.00000396 +00000-0 +12687-3 0  9995
2 30884 098.9423 022.0857 0111164 164.0788 196.3940 14.42015862596096
1 30885U 99025AXX 18205.49543091 +.00000560 +00000-0 +27792-3 0  9991
2 30885 098.9616 295.5583 0084005 090.9669 333.4094 14.19337625587128
1 30886U 99025AXY 18205.27844642 +.00000473 +00000-0 +29223-3 0  9998
2 30886 099.2030 329.6862 0039373 046.7420 313.7024 14.10004691582713
